#aV2016  2 13  0  0  0.00000000     288 DD+AD WGS84 FIT  NGA
## 1883 518400.00000000   300.00000000 57431 0.0000000000000
+   30     1  2  3  5  6  7  8  9 10 11 12 13 14 15 16 17 18
+         19 20 21 22 23 24 25 26 27 28 29 30 31  0  0  0  0
+          0  0  0  0  0  0  0  0  0  0  0  0  0  0  0  0  0
+          0  0  0  0  0  0  0  0  0  0  0  0  0  0  0  0  0
+          0  0  0  0  0  0  0  0  0  0  0  0  0  0  0  0  0
++         2  2  2  2  2  2  2  2  2  2  2  2  2  2  2  2  2
++         2  2  2  2  2  2  2  2  2  2  2  2  2  0  0  0  0
++         0  0  0  0  0  0  0  0  0  0  0  0  0  0  0  0  0
++         0  0  0  0  0  0  0  0  0  0  0  0  0  0  0  0  0
++         0  0  0  0  0  0  0  0  0  0  0  0  0  0  0  0  0
%c cc cc ccc ccc cccc cccc cccc cccc ccccc ccccc ccccc ccccc
%c cc cc ccc ccc cccc cccc cccc cccc ccccc ccccc ccccc ccccc
%f  0.0000000  0.000000000  0.00000000000  0.000000000000000
%f  0.0000000  0.000000000  0.00000000000  0.000000000000000
%i    0    0    0    0      0      0      0      0         0
%i    0    0    0    0      0      0      0      0         0
/*      NGA, ST. LOUIS,MO.                                  
/*   EPHEMERIS COMPUTED FROM 2 DAYS OF DATA                 
/*   EPOCHA v2.4 SMOOTHER                                   
/*   G1762 IERS2010 SATAF SATAPC                            
*  2016  2 13 12  0  0.00000000
P  1  -1963.579780  16443.370491 -20790.701220     11.635859                    
V  1 -24619.595603   9225.685176   9867.786987      0.010017                    
P  2  21038.214644 -14767.838925   6163.597168    599.551862                    
V  2   8208.317119     71.022565 -30293.069478     -0.000183                    
P  3   7632.061580  19796.547320 -15971.822289    -24.065025                    
V  3 -17364.474486 -10670.746118 -21538.001762     -0.047405                    
P  5  12023.190356 -10208.857710  21318.384722   -146.472151                    
V  5  21713.669967  16491.628131  -4141.379472      0.034283                    
P  6  25009.229502  -5125.495369  -7306.728528    144.818857                    
V  6  -7539.678304   6006.796664 -29987.949189      0.060134                    
P  7  14907.606387   9107.738840  20247.751582    469.803338                    
V  7 -23231.851586  10026.564464  12292.790516     -0.016594                    
P  8  -6050.169980  25495.388855   4340.426687    -23.717106                    
V  8  -2085.420691  -5726.035042  31152.550089     -0.014447                    
P  9   9305.225372  18872.807361  16180.419547     69.854012                    
V  9  -4396.115004  20228.219941 -21050.161177      0.076934                    
P 10 -23116.995375  -8755.392301  -9780.360096     43.808916                    
V 10  -8430.957464  -9454.935962  28312.942459     -0.043328                    
P 11  -4596.966520  21492.373147 -15426.791399   -632.126815                    
V 11 -15829.853512  10767.252482  20511.568679     -0.017615                    
P 12  -3488.015486 -18839.142367 -18608.469445    367.776347                    
V 12  18376.580782  14249.473464 -17768.593757      0.025979                    
P 13  12493.546720 -20867.560230  10644.012343   -185.023746                    
V 13  -1127.955417  13791.681948  27912.108792     -0.025181                    
P 14 -14798.117793  -2606.931138 -21650.860441      3.332764                    
V 14   5462.273352 -27544.659679   -557.369886     -0.022407                    
P 15   2044.830086 -26288.225025    382.435467   -296.986966                    
V 15   4009.516081    907.003876  31297.002565     -0.018255                    
P 16 -12615.749431   8037.079431  21901.061923    -40.162650                    
V 16 -20951.929362 -18402.581029  -4919.734813      0.031086                    
P 17  14293.760317   3836.308927 -21734.158477   -200.588474                    
V 17  -4796.427618  27928.490362   1559.991458     -0.005568                    
P 18 -20788.055791 -16693.992690   2085.827247    483.094127                    
V 18   3775.798251  -1808.615815  30627.897076      0.039053                    
P 19  15832.590485  -5115.778450 -21043.363146   -524.845010                    
V 19  -5111.636615  25532.342323  -9751.595358     -0.001294                    
P 20  -4898.276435 -18937.459727  17785.678065    392.524648                    
V 20  20618.283402  10506.013704  16771.811243      0.026197                    
P 21 -18304.708026  -6938.558804  18813.452932   -510.223312                    
V 21  19782.265837 -10564.385321  15701.316989     -0.018669                    
P 22 -16140.357370   6876.929841 -19772.044981    397.758020                    
V 22 -20150.379966 -15981.822627  10604.140891     -0.058367                    
P 23   2017.258571  25327.693345   7090.934925   -159.831752                    
V 23  -4496.384125   8417.977389 -29938.135324     -0.018827                    
P 24   5034.843899 -17426.042577 -19386.118437    -12.300686                    
V 24  23059.228547  -8714.588572  14045.862638     -0.006359                    
P 25 -15332.920896 -19651.149260  -9547.884523   -116.288181                    
V 25  10604.847772   5692.106266 -28881.301204     -0.066910                    
P 26 -19909.566053    500.266522  17596.912964   -252.635230                    
V 26 -16918.190494 -14653.257069 -18688.302964     -0.157426                    
P 27 -11698.589864  19506.221904  13566.503949     62.421884                    
V 27    -25.118481 -17430.307120  25146.959112      0.035845                    
P 28  21971.404094  11577.011858  -8847.621897    502.141838                    
V 28   7858.932739   9375.063340  29627.752896      0.025953                    
P 29  -6037.798594 -21509.743591  14413.508993    654.109944                    
V 29   4934.693535 -17630.128178 -24229.436392      0.008437                    
P 30  22689.486748   2459.426862  13646.999750     95.909651                    
V 30 -15636.197461   7815.081296  24494.940384      0.043172                    
P 31 -25527.630082   6131.450690  -5047.950964    282.850586                    
V 31   5294.342691  -4283.434241 -30923.300290     -0.016862                    
EOF
